[{"OBJECT_NAME":"STARLINK-37181","OBJECT_ID":"2026-059W","EPOCH":"2026-04-07T16:41:44.282688","MEAN_MOTION":15.8091868,"ECCENTRICITY":0.0001578,"INCLINATION":53.1583,"RA_OF_ASC_NODE":217.3492,"ARG_OF_PERICENTER":92.3193,"MEAN_ANOMALY":267.8011,"EPHEMERIS_TYPE":0,"CLASSIFICATION_TYPE":"U","NORAD_CAT_ID":68341,"ELEMENT_SET_NO":999,"REV_AT_EPOCH":256,"BSTAR":0.00068869,"MEAN_MOTION_DOT":0.00137706,"MEAN_MOTION_DDOT":0},{"OBJECT_NAME":"STARLINK-37192","OBJECT_ID":"2026-059X","EPOCH":"2026-04-07T20:00:00.999360","MEAN_MOTION":15.78079116,"ECCENTRICITY":0.0001052,"INCLINATION":53.1585,"RA_OF_ASC_NODE":216.6487,"ARG_OF_PERICENTER":50.1639,"MEAN_ANOMALY":19.2284,"EPHEMERIS_TYPE":0,"CLASSIFICATION_TYPE":"U","NORAD_CAT_ID":68342,"ELEMENT_SET_NO":999,"REV_AT_EPOCH":372,"BSTAR":-0.012515,"MEAN_MOTION_DOT":-0.01896564,"MEAN_MOTION_DDOT":0},{"OBJECT_NAME":"STARLINK-37158","OBJECT_ID":"2026-059Y","EPOCH":"2026-04-07T19:40:33.955680","MEAN_MOTION":15.80960102,"ECCENTRICITY":9.45e-5,"INCLINATION":53.158,"RA_OF_ASC_NODE":216.7001,"ARG_OF_PERICENTER":58.9577,"MEAN_ANOMALY":301.1538,"EPHEMERIS_TYPE":0,"CLASSIFICATION_TYPE":"U","NORAD_CAT_ID":68343,"ELEMENT_SET_NO":999,"REV_AT_EPOCH":258,"BSTAR":0.0010845,"MEAN_MOTION_DOT":0.00219768,"MEAN_MOTION_DDOT":0},{"OBJECT_NAME":"STARLINK-36380","OBJECT_ID":"2026-059Z","EPOCH":"2026-04-07T16:40:39.374688","MEAN_MOTION":15.80953044,"ECCENTRICITY":0.0001417,"INCLINATION":53.1578,"RA_OF_ASC_NODE":217.3441,"ARG_OF_PERICENTER":63.8618,"MEAN_ANOMALY":296.2551,"EPHEMERIS_TYPE":0,"CLASSIFICATION_TYPE":"U","NORAD_CAT_ID":68344,"ELEMENT_SET_NO":999,"REV_AT_EPOCH":256,"BSTAR":0.0011544,"MEAN_MOTION_DOT":0.00234303,"MEAN_MOTION_DDOT":0},{"OBJECT_NAME":"STARLINK-37214","OBJECT_ID":"2026-059AA","EPOCH":"2026-04-07T16:36:20.043360","MEAN_MOTION":15.80973584,"ECCENTRICITY":0.0001784,"INCLINATION":53.1583,"RA_OF_ASC_NODE":217.3234,"ARG_OF_PERICENTER":40.8109,"MEAN_ANOMALY":319.3047,"EPHEMERIS_TYPE":0,"CLASSIFICATION_TYPE":"U","NORAD_CAT_ID":68345,"ELEMENT_SET_NO":999,"REV_AT_EPOCH":256,"BSTAR":0.0013759,"MEAN_MOTION_DOT":0.00281195,"MEAN_MOTION_DDOT":0},{"OBJECT_NAME":"STARLINK-37169","OBJECT_ID":"2026-059AB","EPOCH":"2026-04-07T19:37:19.101216","MEAN_MOTION":15.80970617,"ECCENTRICITY":6.58e-5,"INCLINATION":53.1585,"RA_OF_ASC_NODE":216.6843,"ARG_OF_PERICENTER":61.953,"MEAN_ANOMALY":298.1559,"EPHEMERIS_TYPE":0,"CLASSIFICATION_TYPE":"U","NORAD_CAT_ID":68346,"ELEMENT_SET_NO":999,"REV_AT_EPOCH":258,"BSTAR":0.0010437,"MEAN_MOTION_DOT":0.00211367,"MEAN_MOTION_DDOT":0},{"OBJECT_NAME":"STARLINK-37136","OBJECT_ID":"2026-059AC","EPOCH":"2026-04-07T19:36:14.770368","MEAN_MOTION":15.80942274,"ECCENTRICITY":0.0001338,"INCLINATION":53.1585,"RA_OF_ASC_NODE":216.6793,"ARG_OF_PERICENTER":76.3513,"MEAN_ANOMALY":283.7659,"EPHEMERIS_TYPE":0,"CLASSIFICATION_TYPE":"U","NORAD_CAT_ID":68347,"ELEMENT_SET_NO":999,"REV_AT_EPOCH":258,"BSTAR":0.00093276,"MEAN_MOTION_DOT":0.00188061,"MEAN_MOTION_DDOT":0},{"OBJECT_NAME":"STARLINK-37182","OBJECT_ID":"2026-059AD","EPOCH":"2026-04-07T19:39:28.897344","MEAN_MOTION":15.81026138,"ECCENTRICITY":0.0001065,"INCLINATION":53.1584,"RA_OF_ASC_NODE":216.6948,"ARG_OF_PERICENTER":43.7482,"MEAN_ANOMALY":316.3624,"EPHEMERIS_TYPE":0,"CLASSIFICATION_TYPE":"U","NORAD_CAT_ID":68348,"ELEMENT_SET_NO":999,"REV_AT_EPOCH":258,"BSTAR":0.0017827,"MEAN_MOTION_DOT":0.00369221,"MEAN_MOTION_DDOT":0},{"OBJECT_NAME":"STARLINK-37183","OBJECT_ID":"2026-059AE","EPOCH":"2026-04-07T19:35:09.762144","MEAN_MOTION":15.80961015,"ECCENTRICITY":0.000142,"INCLINATION":53.1584,"RA_OF_ASC_NODE":216.674,"ARG_OF_PERICENTER":92.8377,"MEAN_ANOMALY":267.2808,"EPHEMERIS_TYPE":0,"CLASSIFICATION_TYPE":"U","NORAD_CAT_ID":68349,"ELEMENT_SET_NO":999,"REV_AT_EPOCH":258,"BSTAR":0.0015553,"MEAN_MOTION_DOT":0.0031917,"MEAN_MOTION_DDOT":0},{"OBJECT_NAME":"CENTISPACE-1 OBJECT A","OBJECT_ID":"2026-060A","EPOCH":"2026-04-07T15:10:11.242848","MEAN_MOTION":14.74518737,"ECCENTRICITY":0.0012812,"INCLINATION":54.9812,"RA_OF_ASC_NODE":323.5595,"ARG_OF_PERICENTER":328.9465,"MEAN_ANOMALY":31.0775,"EPHEMERIS_TYPE":0,"CLASSIFICATION_TYPE":"U","NORAD_CAT_ID":68350,"ELEMENT_SET_NO":999,"REV_AT_EPOCH":236,"BSTAR":-0.0034453,"MEAN_MOTION_DOT":-0.00023251,"MEAN_MOTION_DDOT":0},{"OBJECT_NAME":"CENTISPACE-1 OBJECT B","OBJECT_ID":"2026-060B","EPOCH":"2026-04-04T18:49:36.793632","MEAN_MOTION":14.74944202,"ECCENTRICITY":0.00135305,"INCLINATION":54.982,"RA_OF_ASC_NODE":335.1667,"ARG_OF_PERICENTER":326.88,"MEAN_ANOMALY":33.1351,"EPHEMERIS_TYPE":0,"CLASSIFICATION_TYPE":"U","NORAD_CAT_ID":68351,"ELEMENT_SET_NO":999,"REV_AT_EPOCH":194,"BSTAR":0.00035156248,"MEAN_MOTION_DOT":2.174e-5,"MEAN_MOTION_DDOT":0},{"OBJECT_NAME":"CENTISPACE-1 OBJECT C","OBJECT_ID":"2026-060C","EPOCH":"2026-04-05T17:33:34.489152","MEAN_MOTION":14.74891649,"ECCENTRICITY":0.00121348,"INCLINATION":54.9852,"RA_OF_ASC_NODE":331.2905,"ARG_OF_PERICENTER":338.2549,"MEAN_ANOMALY":21.7934,"EPHEMERIS_TYPE":0,"CLASSIFICATION_TYPE":"U","NORAD_CAT_ID":68352,"ELEMENT_SET_NO":999,"REV_AT_EPOCH":208,"BSTAR":4.3653263e-5,"MEAN_MOTION_DOT":8.6e-7,"MEAN_MOTION_DDOT":0},{"OBJECT_NAME":"CENTISPACE-1 OBJECT D","OBJECT_ID":"2026-060D","EPOCH":"2026-04-05T17:33:35.510400","MEAN_MOTION":14.74881966,"ECCENTRICITY":0.00124072,"INCLINATION":54.9822,"RA_OF_ASC_NODE":331.2869,"ARG_OF_PERICENTER":338.9865,"MEAN_ANOMALY":21.0623,"EPHEMERIS_TYPE":0,"CLASSIFICATION_TYPE":"U","NORAD_CAT_ID":68353,"ELEMENT_SET_NO":999,"REV_AT_EPOCH":208,"BSTAR":4.367931e-5,"MEAN_MOTION_DOT":8.6e-7,"MEAN_MOTION_DDOT":0},{"OBJECT_NAME":"CENTISPACE-1 OBJECT E","OBJECT_ID":"2026-060E","EPOCH":"2026-04-06T09:48:24.874272","MEAN_MOTION":14.74860184,"ECCENTRICITY":0.00128411,"INCLINATION":54.9777,"RA_OF_ASC_NODE":328.5107,"ARG_OF_PERICENTER":340.1409,"MEAN_ANOMALY":19.9089,"EPHEMERIS_TYPE":0,"CLASSIFICATION_TYPE":"U","NORAD_CAT_ID":68354,"ELEMENT_SET_NO":999,"REV_AT_EPOCH":218,"BSTAR":3.9395794e-5,"MEAN_MOTION_DOT":5.7e-7,"MEAN_MOTION_DDOT":0},{"OBJECT_NAME":"CENTISPACE-1 OBJECT F","OBJECT_ID":"2026-060F","EPOCH":"2026-04-05T19:09:59.644800","MEAN_MOTION":14.74955235,"ECCENTRICITY":0.00128704,"INCLINATION":54.9777,"RA_OF_ASC_NODE":330.9993,"ARG_OF_PERICENTER":336.1698,"MEAN_ANOMALY":23.8704,"EPHEMERIS_TYPE":0,"CLASSIFICATION_TYPE":"U","NORAD_CAT_ID":68355,"ELEMENT_SET_NO":999,"REV_AT_EPOCH":209,"BSTAR":4.3343164e-5,"MEAN_MOTION_DOT":8.4e-7,"MEAN_MOTION_DDOT":0},{"OBJECT_NAME":"CENTISPACE-1 OBJECT G","OBJECT_ID":"2026-060G","EPOCH":"2026-04-06T21:09:46.086624","MEAN_MOTION":14.75165457,"ECCENTRICITY":0.00135205,"INCLINATION":54.9907,"RA_OF_ASC_NODE":326.5853,"ARG_OF_PERICENTER":338.9161,"MEAN_ANOMALY":21.1279,"EPHEMERIS_TYPE":0,"CLASSIFICATION_TYPE":"U","NORAD_CAT_ID":68356,"ELEMENT_SET_NO":999,"REV_AT_EPOCH":225,"BSTAR":3.9760246e-5,"MEAN_MOTION_DOT":6.1e-7,"MEAN_MOTION_DDOT":0}]
