STARLINK-37181          
1 68341U 26059W   26097.69565142  .00137706  00000+0  68869-3 0  9999
2 68341  53.1583 217.3492 0001578  92.3193 267.8011 15.80918680  2569
STARLINK-37192          
1 68342U 26059X   26097.83334490 -.01896564  00000+0 -12515-1 0  9998
2 68342  53.1585 216.6487 0001052  50.1639  19.2284 15.78079116  3721
STARLINK-37158          
1 68343U 26059Y   26097.81983745  .00219768  00000+0  10845-2 0  9997
2 68343  53.1580 216.7001 0000945  58.9577 301.1538 15.80960102  2582
STARLINK-36380          
1 68344U 26059Z   26097.69490017  .00234303  00000+0  11544-2 0  9998
2 68344  53.1578 217.3441 0001417  63.8618 296.2551 15.80953044  2565
STARLINK-37214          
1 68345U 26059AA  26097.69189865  .00281195  00000+0  13759-2 0  9996
2 68345  53.1583 217.3234 0001784  40.8109 319.3047 15.80973584  2567
STARLINK-37169          
1 68346U 26059AB  26097.81758219  .00211367  00000+0  10437-2 0  9990
2 68346  53.1585 216.6843 0000658  61.9530 298.1559 15.80970617  2587
STARLINK-37136          
1 68347U 26059AC  26097.81683762  .00188061  00000+0  93276-3 0  9998
2 68347  53.1585 216.6793 0001338  76.3513 283.7659 15.80942274  2588
STARLINK-37182          
1 68348U 26059AD  26097.81908446  .00369221  00000+0  17827-2 0  9994
2 68348  53.1584 216.6948 0001065  43.7482 316.3624 15.81026138  2588
STARLINK-37183          
1 68349U 26059AE  26097.81608521  .00319170  00000+0  15553-2 0  9998
2 68349  53.1584 216.6740 0001420  92.8377 267.2808 15.80961015  2581
CENTISPACE-1 OBJECT A   
1 68350U 26060A   26097.63207457 -.00023251  00000+0 -34453-2 0  9999
2 68350  54.9812 323.5595 0012812 328.9465  31.0775 14.74518737  2367
CENTISPACE-1 OBJECT B   
1 68351U 26060B   26094.78445363  .00002174  00000+0  35156-3 0  9994
2 68351  54.9820 335.1667 0013530 326.8800  33.1351 14.74944202  1940
CENTISPACE-1 OBJECT C   
1 68352U 26060C   26095.73164918  .00000086  00000+0  43653-4 0  9997
2 68352  54.9852 331.2905 0012134 338.2549  21.7934 14.74891649  2086
CENTISPACE-1 OBJECT D   
1 68353U 26060D   26095.73166100  .00000086  00000+0  43679-4 0  9991
2 68353  54.9822 331.2869 0012407 338.9865  21.0623 14.74881966  2083
CENTISPACE-1 OBJECT E   
1 68354U 26060E   26096.40862123  .00000057  00000+0  39396-4 0  9994
2 68354  54.9777 328.5107 0012841 340.1409  19.9089 14.74860184  2180
CENTISPACE-1 OBJECT F   
1 68355U 26060F   26095.79860700  .00000084  00000+0  43343-4 0  9992
2 68355  54.9777 330.9993 0012870 336.1698  23.8704 14.74955235  2098
CENTISPACE-1 OBJECT G   
1 68356U 26060G   26096.88178341  .00000061  00000+0  39760-4 0  9990
2 68356  54.9907 326.5853 0013520 338.9161  21.1279 14.75165457  2254
